GLOBALSTAR M067         
1 32263U 07048A   25355.10268428 -.00000068  00000+0  21525-3 0  9998
2 32263  51.9701 208.9966 0002000  50.7422 123.2742 12.40683053832683
GLOBALSTAR M070         
1 32264U 07048B   25355.06965492 -.00000075  00000+0  15860-3 0  9992
2 32264  51.9758 279.1791 0000526  63.2125 310.1371 12.62327558837276
GLOBALSTAR M066         
1 32265U 07048C   25354.91255352 -.00000086  00000+0  68544-4 0  9993
2 32265  51.9569 209.6881 0005667  38.1502 334.9151 12.30383494838284
GLOBALSTAR M068         
1 32266U 07048D   25355.04530384 -.00000092  00000+0  66155-4 0  9993
2 32266  51.9886  92.6431 0001551 159.1020  12.2408 12.62835596841167
GLOBALSTAR M079         
1 37188U 10054A   25354.09052307 -.00000086  00000+0  10108-3 0  9999
2 37188  52.0069 293.8690 0000713  31.2994 342.4928 12.62261594699933
GLOBALSTAR M074         
1 37189U 10054B   25355.14646247 -.00000082  00000+0  12328-3 0  9991
2 37189  52.0028 289.9471 0000812  58.0693 316.0153 12.62264215700679
GLOBALSTAR M076         
1 37190U 10054C   25355.20083293 -.00000085  00000+0  10661-3 0  9997
2 37190  52.0041 289.9706 0000905  48.4455  91.7941 12.62268266700390
GLOBALSTAR M077         
1 37191U 10054D   25355.12547233 -.00000088  00000+0 -17538-3 0  9992
2 37191  51.9979 271.5898 0001284  37.2561 100.0889 11.68176449700338
